YAOGAN-47               
1 66988U 25289A   25354.09842060  .00002520  00000+0  10946-3 0  9992
2 66988  97.5265  59.2376 0000646  91.4531 268.6780 15.23243112  1668
CZ-4B R/B               
1 66989U 25289B   25360.67857722  .00132889  74346-5  60918-3 0  9991
2 66989  97.5229  67.0553 0138351 310.0195  48.8991 15.70668589  2758
TJS-22                  
1 66990U 25290A   25360.34456492  .00000016  00000+0  00000+0 0  9996
2 66990   1.9542 285.0349 0003383 343.1760  17.3735  1.00271732   295
CZ-3B R/B               
1 66991U 25290B   25349.72468800  .00057911 -20514-6  75879-3 0  9998
2 66991  28.4636 300.4666 7240884 182.7002 168.6250  2.38388611   165
2025-292A               
1 66993U 25292A   25360.70687806  .00004623  00000+0  33290-3 0  9995
2 66993  97.6491  73.1210 0014745 222.3676 137.6413 15.04600766  2499
2025-292B               
1 66994U 25292B   25360.77288444  .00005233  00000+0  37577-3 0  9998
2 66994  97.6501  73.1891 0014542 222.4709 137.5393 15.04652129  2508
2025-292C               
1 66995U 25292C   25359.24313955  .00005751  00000+0  41226-3 0  9996
2 66995  97.6495  71.6733 0014688 227.9665 132.0312 15.04668363  2273
2025-292D               
1 66996U 25292D   25359.24277807  .00003792  00000+0  27339-3 0  9994
2 66996  97.6491  71.6729 0013797 230.5158 129.4848 15.04678565  2271
2025-292E               
1 66997U 25292E   25360.77136697  .00004844  00000+0  34695-3 0  9998
2 66997  97.6508  73.1925 0014336 226.3328 133.6711 15.04785071  2499
2025-292F               
1 66998U 25292F   25360.63656536  .00006580  00000+0  46716-3 0  9999
2 66998  97.6528  73.0669 0015467 227.6294 132.3623 15.04971192  2486
2025-292G               
1 66999U 25292G   25360.76884081  .00006555  00000+0  46461-3 0  9991
2 66999  97.6538  73.2014 0014971 229.1511 130.8418 15.05037093  2504
2025-292H               
1 67000U 25292H   25360.76868913  .00007876  00000+0  55673-3 0  9993
2 67000  97.6551  73.2042 0014921 228.9792 131.0145 15.05072531  2378
